NORAD_CAT_ID,OBJECT_NAME,OBJECT_TYPE,EPOCH,MEAN_MOTION,ECCENTRICITY,INCLINATION,RA_OF_ASC_NODE,ARG_OF_PERICENTER,MEAN_ANOMALY,BSTAR,MEAN_MOTION_DOT,MEAN_MOTION_DDOT,TLE_LINE0,TLE_LINE1,TLE_LINE2,SEMIMAJOR_AXIS,PERIOD,APOGEE,PERIGEE,DECAYED
53933.0,STARLINK-4782,PAYLOAD,2023-05-18 17:45:47,15.08842389,0.0001128,53.2167,229.6457,94.3758,265.7363,5.7108e-05,6.21e-06,0.0,0 STARLINK-4782,1 53933U 22119AZ  23138.74013881  .00000621  00000-0  57108-4 0  9991,2 53933  53.2167 229.6457 0001128  94.3758 265.7363 15.08842389 37080,6917.873,95.437,540.518,538.958,0.0
53933.0,STARLINK-4782,PAYLOAD,2023-05-19 11:15:02,15.08840187,0.0001046,53.2161,226.3741,92.0326,268.0786,6.2463e-05,7.06e-06,0.0,0 STARLINK-4782,1 53933U 22119AZ  23139.46878163  .00000706  00000-0  62463-4 0  9997,2 53933  53.2161 226.3741 0001046  92.0326 268.0786 15.08840187 37190,6917.88,95.438,540.468,539.021,0.0
53933.0,STARLINK-4782,PAYLOAD,2023-05-19 22:22:44,15.08841068,0.0001087,53.2156,224.2924,107.6183,252.4928,8.8462e-05,1.12e-05,0.0,0 STARLINK-4782,1 53933U 22119AZ  23139.93245958  .00001120  00000-0  88462-4 0  9997,2 53933  53.2156 224.2924 0001087 107.6183 252.4928 15.08841068 36848,6917.877,95.437,540.494,538.99,0.0
53933.0,STARLINK-4782,PAYLOAD,2023-05-20 11:05:49,15.08842228,0.0001051,53.2153,221.9133,104.0281,256.0828,0.00011676,1.571e-05,0.0,0 STARLINK-4782,1 53933U 22119AZ  23140.46237959  .00001571  00000-0  11676-3 0  9991,2 53933  53.2153 221.9133 0001051 104.0281 256.0828 15.08842228 37346,6917.874,95.437,540.466,539.012,0.0
53933.0,STARLINK-4782,PAYLOAD,2023-05-21 04:35:03,15.08848481,8.8e-05,53.2148,218.6447,99.1482,260.961,8.3917e-05,1.048e-05,0.0,0 STARLINK-4782,1 53933U 22119AZ  23141.19101416  .00001048  00000-0  83917-4 0  9997,2 53933  53.2148 218.6447 0000880  99.1482 260.9610 15.08848481 37033,6917.854,95.437,540.328,539.111,0.0
53933.0,STARLINK-4782,PAYLOAD,2023-05-21 10:56:36,15.08842523,0.0001152,53.2146,217.4542,94.0148,266.0976,3.6246e-05,2.89e-06,0.0,0 STARLINK-4782,1 53933U 22119AZ  23141.45597754  .00000289  00000-0  36246-4 0  9999,2 53933  53.2146 217.4542 0001152  94.0148 266.0976 15.08842523 37493,6917.873,95.437,540.535,538.941,0.0
53933.0,STARLINK-4782,PAYLOAD,2023-05-21 12:31:59,15.08844074,0.0001323,53.2147,217.1569,96.1032,264.0111,5.043e-05,5.15e-06,0.0,0 STARLINK-4782,1 53933U 22119AZ  23141.52221679  .00000515  00000-0  50430-4 0  9990,2 53933  53.2147 217.1569 0001323  96.1032 264.0111 15.08844074 37082,6917.868,95.437,540.648,538.818,0.0
53933.0,STARLINK-4782,PAYLOAD,2023-05-21 22:04:18,15.08842444,0.0001161,53.2147,215.3725,85.4035,274.709,3.6506e-05,2.93e-06,0.0,0 STARLINK-4782,1 53933U 22119AZ  23141.91965789  .00000293  00000-0  36506-4 0  9991,2 53933  53.2147 215.3725 0001161  85.4035 274.7090 15.08842444 37566,6917.873,95.437,540.541,538.935,0.0
53933.0,STARLINK-4782,PAYLOAD,2023-05-22 10:47:24,15.08831704,0.0001289,53.2147,212.9943,87.066,273.0479,-9.8857e-05,-1.86e-05,0.0,0 STARLINK-4782,1 53933U 22119AZ  23142.44958480 -.00001860  00000-0 -98857-4 0  9990,2 53933  53.2147 212.9943 0001289  87.0660 273.0479 15.08831704 37227,6917.906,95.438,540.662,538.879,0.0
53933.0,STARLINK-4782,PAYLOAD,2023-05-22 12:22:47,15.0883686,0.0001085,53.2158,212.6961,85.9268,274.1848,-3.5996e-05,-8.61e-06,0.0,0 STARLINK-4782,1 53933U 22119AZ  23142.51582708 -.00000861  00000-0 -35996-4 0  9999,2 53933  53.2158 212.6961 0001085  85.9268 274.1848 15.08836860 37658,6917.89,95.438,540.506,539.004,0.0
53933.0,STARLINK-4782,PAYLOAD,2023-05-23 10:38:11,15.08837865,0.0001088,53.2158,208.5329,79.9984,280.1131,3.7773e-05,3.13e-06,0.0,0 STARLINK-4782,1 53933U 22119AZ  23143.44318760  .00000313  00000-0  37773-4 0  9992,2 53933  53.2158 208.5329 0001088  79.9984 280.1131 15.08837865 37378,6917.887,95.438,540.505,538.999,0.0
53933.0,STARLINK-4782,PAYLOAD,2023-05-23 21:45:53,15.08840571,0.0001142,53.216,206.4522,75.7746,284.3372,6.5684e-05,7.58e-06,0.0,0 STARLINK-4782,1 53933U 22119AZ  23143.90686588  .00000758  00000-0  65684-4 0  9994,2 53933  53.2160 206.4522 0001142  75.7746 284.3372 15.08840571 37869,6917.879,95.438,540.534,538.954,0.0
53933.0,STARLINK-4782,PAYLOAD,2023-05-24 13:39:44,15.08842291,0.0001091,53.2158,203.477,83.1953,276.9163,0.00017628,2.519e-05,0.0,0 STARLINK-4782,1 53933U 22119AZ  23144.56926347  .00002519  00000-0  17628-3 0  9998,2 53933  53.2158 203.4770 0001091  83.1953 276.9163 15.08842291 37545,6917.873,95.437,540.493,538.984,0.0
53933.0,STARLINK-4782,PAYLOAD,2023-05-26 03:49:00,15.08840736,0.0001057,53.2146,196.3373,101.3059,258.8052,1.0793e-05,-1.16e-06,0.0,0 STARLINK-4782,1 53933U 22119AZ  23146.15902886 -.00000116  00000-0  10793-4 0  9996,2 53933  53.2146 196.3373 0001057 101.3059 258.8052 15.08840736 37787,6917.878,95.438,540.474,539.012,0.0
53933.0,STARLINK-4782,PAYLOAD,2023-05-26 13:21:18,15.08839379,0.000116,53.2154,194.5543,106.2432,253.8688,2.2252e-05,6.6e-07,0.0,0 STARLINK-4782,1 53933U 22119AZ  23146.55646852  .00000066  00000-0  22252-4 0  9994,2 53933  53.2154 194.5543 0001160 106.2432 253.8688 15.08839379 38264,6917.882,95.438,540.55,538.945,0.0
53933.0,STARLINK-4782,PAYLOAD,2023-05-27 10:01:19,15.08838696,0.0001002,53.215,190.6899,84.6044,275.5062,6.303e-05,7.15e-06,0.0,0 STARLINK-4782,1 53933U 22119AZ  23147.41758892  .00000715  00000-0  63030-4 0  9998,2 53933  53.2150 190.6899 0001002  84.6044 275.5062 15.08838696 37979,6917.884,95.438,540.443,539.056,0.0
53933.0,STARLINK-4782,PAYLOAD,2023-05-27 19:33:38,15.08836944,9.96e-05,53.215,188.9058,82.0244,278.0861,4.3863e-05,4.1e-06,0.0,0 STARLINK-4782,1 53933U 22119AZ  23147.81503118  .00000410  00000-0  43863-4 0  9995,2 53933  53.2150 188.9058 0000996  82.0244 278.0861 15.08836944 38454,6917.89,95.438,540.444,539.066,0.0
53933.0,STARLINK-4782,PAYLOAD,2023-05-28 01:55:11,15.08837237,0.0001016,53.215,187.7165,84.4939,275.6169,3.1464e-05,2.13e-06,0.0,0 STARLINK-4782,1 53933U 22119AZ  23148.07999179  .00000213  00000-0  31464-4 0  9995,2 53933  53.2150 187.7165 0001016  84.4939 275.6169 15.08837237 38495,6917.889,95.438,540.457,539.051,0.0
53933.0,STARLINK-4782,PAYLOAD,2023-05-28 09:52:06,15.08838962,0.000102,53.2151,186.2298,84.5666,275.5442,4.258e-05,3.9e-06,0.0,0 STARLINK-4782,1 53933U 22119AZ  23148.41119093  .00000390  00000-0  42580-4 0  9999,2 53933  53.2151 186.2298 0001020  84.5666 275.5442 15.08838962 38545,6917.884,95.438,540.454,539.043,0.0
53933.0,STARLINK-4782,PAYLOAD,2023-05-28 22:35:11,15.08839653,0.0001008,53.2152,183.8511,85.2394,274.8714,7.3743e-05,8.86e-06,0.0,0 STARLINK-4782,1 53933U 22119AZ  23148.94110977  .00000886  00000-0  73743-4 0  9994,2 53933  53.2152 183.8511 0001008  85.2394 274.8714 15.08839653 38204,6917.881,95.438,540.444,539.049,0.0
53933.0,STARLINK-4782,PAYLOAD,2023-05-29 11:18:16,15.08842298,0.0001027,53.2151,181.472,82.6599,277.451,6.6533e-05,7.71e-06,0.0,0 STARLINK-4782,1 53933U 22119AZ  23149.47102800  .00000771  00000-0  66533-4 0  9991,2 53933  53.2151 181.4720 0001027  82.6599 277.4510 15.08842298 38705,6917.873,95.437,540.449,539.028,0.0
53933.0,STARLINK-4782,PAYLOAD,2023-05-29 19:15:12,15.08839437,0.0001015,53.2153,179.9855,87.0902,273.0207,4.2897e-05,3.95e-06,0.0,0 STARLINK-4782,1 53933U 22119AZ  23149.80223031  .00000395  00000-0  42897-4 0  9997,2 53933  53.2153 179.9855 0001015  87.0902 273.0207 15.08839437 38753,6917.882,95.438,540.449,539.045,0.0
53933.0,STARLINK-4782,PAYLOAD,2023-05-30 01:36:45,15.0883807,0.0001034,53.2152,178.7958,87.8498,272.2612,2.9432e-05,1.81e-06,0.0,0 STARLINK-4782,1 53933U 22119AZ  23150.06719176  .00000181  00000-0  29432-4 0  9990,2 53933  53.2152 178.7958 0001034  87.8498 272.2612 15.08838070 38373,6917.886,95.438,540.467,539.036,0.0
53933.0,STARLINK-4782,PAYLOAD,2023-05-30 09:33:41,15.08836353,0.0001046,53.2151,177.3085,88.6972,271.414,1.6339e-05,-2.8e-07,0.0,0 STARLINK-4782,1 53933U 22119AZ  23150.39839387 -.00000028  00000-0  16339-4 0  9996,2 53933  53.2151 177.3085 0001046  88.6972 271.4140 15.08836353 38848,6917.892,95.438,540.48,539.033,0.0
53933.0,STARLINK-4782,PAYLOAD,2023-05-30 19:06:00,15.08837475,0.0001049,53.2153,175.5242,88.2317,271.8795,1.4397e-05,-5.9e-07,0.0,0 STARLINK-4782,1 53933U 22119AZ  23150.79583373 -.00000059  00000-0  14397-4 0  9997,2 53933  53.2153 175.5242 0001049  88.2317 271.8795 15.08837475 38900,6917.888,95.438,540.479,539.027,0.0
53933.0,STARLINK-4782,PAYLOAD,2023-05-31 07:49:05,15.08839718,0.0001055,53.2152,173.1451,87.9382,272.1731,2.2821e-05,7.5e-07,0.0,0 STARLINK-4782,1 53933U 22119AZ  23151.32575259  .00000075  00000-0  22821-4 0  9999,2 53933  53.2152 173.1451 0001055  87.9382 272.1731 15.08839718 38568,6917.881,95.438,540.476,539.016,0.0
53933.0,STARLINK-4782,PAYLOAD,2023-05-31 10:59:51,15.08839492,0.0001105,53.2157,172.5505,87.0366,273.0752,2.9267e-05,1.78e-06,0.0,0 STARLINK-4782,1 53933U 22119AZ  23151.45823276  .00000178  00000-0  29267-4 0  9993,2 53933  53.2157 172.5505 0001105  87.0366 273.0752 15.08839492 39007,6917.882,95.438,540.511,538.983,0.0
53933.0,STARLINK-4782,PAYLOAD,2023-06-01 07:39:51,15.08840941,0.0001049,53.2155,168.6843,87.0972,273.014,8.521e-05,1.069e-05,0.0,0 STARLINK-4782,1 53933U 22119AZ  23152.31935051  .00001069  00000-0  85210-4 0  9994,2 53933  53.2155 168.6843 0001049  87.0972 273.0140 15.08840941 39132,6917.878,95.437,540.468,539.017,0.0
53933.0,STARLINK-4782,PAYLOAD,2023-06-02 01:09:06,15.08838582,0.0001058,53.2153,165.4133,87.0494,273.0619,4.034e-05,3.54e-06,0.0,0 STARLINK-4782,1 53933U 22119AZ  23153.04799389  .00000354  00000-0  40340-4 0  9998,2 53933  53.2153 165.4133 0001058  87.0494 273.0619 15.08838582 38820,6917.885,95.438,540.482,539.018,0.0
53933.0,STARLINK-4782,PAYLOAD,2023-06-02 05:55:16,15.08837939,0.0001054,53.2153,164.5212,86.8093,273.3019,3.268e-05,2.32e-06,0.0,0 STARLINK-4782,1 53933U 22119AZ  23153.24671457  .00000232  00000-0  32680-4 0  9998,2 53933  53.2153 164.5212 0001054  86.8093 273.3019 15.08837939 39278,6917.887,95.438,540.481,539.023,0.0
